ONEWEB-0235             
1 48771U 21045E   24211.49399051  .00000214  00000+0  53461-3 0  9997
2 48771  87.9017  36.0398 0001517  64.1079 296.0208 13.15548815155088
ONEWEB-0242             
1 48772U 21045F   24210.87919591  .00000101  00000+0  23330-3 0  9993
2 48772  87.9017  36.1505 0001766  81.0734 279.0596 13.15548977153923
ONEWEB-0241             
1 48773U 21045G   24211.47496957 -.00000069  00000+0 -21746-3 0  9991
2 48773  87.9026  36.0826 0001363  85.9971 274.1315 13.15549189155044
ONEWEB-0243             
1 48774U 21045H   24210.89821248  .00000184  00000+0  45357-3 0  9992
2 48774  87.9029  36.1571 0001584  68.5689 291.5610 13.15549584153862
ONEWEB-0222             
1 48775U 21045J   24211.49003233  .00000067  00000+0  14441-3 0  9996
2 48775  87.9016  36.0382 0001510  84.3618 275.7684 13.15548959155104
ONEWEB-0244             
1 48776U 21045K   24210.90770917  .00000049  00000+0  96879-4 0  9998
2 48776  87.9016  36.1363 0001864  82.1330 278.0012 13.15547123154476
ONEWEB-0247             
1 48777U 21045L   24210.60031919  .00000129  00000+0  30819-3 0  9998
2 48777  87.9024  36.2417 0001695  52.1846 307.9437 13.15548615153871
ONEWEB-0245             
1 48778U 21045M   24211.43219267  .00000170  00000+0  41662-3 0  9999
2 48778  87.9017  36.0629 0001541  90.4768 269.6538 13.15549197155082
